[{"OBJECT_NAME":"STARLINK-3716","OBJECT_ID":"2022-029E","EPOCH":"2026-03-09T14:50:02.581152","MEAN_MOTION":15.0883684,"ECCENTRICITY":0.00013199,"INCLINATION":53.2165,"RA_OF_ASC_NODE":89.4402,"ARG_OF_PERICENTER":97.6812,"MEAN_ANOMALY":262.433,"EPHEMERIS_TYPE":0,"CLASSIFICATION_TYPE":"U","NORAD_CAT_ID":52092,"ELEMENT_SET_NO":999,"REV_AT_EPOCH":22064,"BSTAR":1.964301e-5,"MEAN_MOTION_DOT":2.5e-7,"MEAN_MOTION_DDOT":0},{"OBJECT_NAME":"CZ-6A DEB","OBJECT_ID":"2024-140FT","EPOCH":"2026-03-09T20:21:11.789568","MEAN_MOTION":14.71915772,"ECCENTRICITY":0.01746518,"INCLINATION":89.0601,"RA_OF_ASC_NODE":285.0345,"ARG_OF_PERICENTER":174.2343,"MEAN_ANOMALY":186.0946,"EPHEMERIS_TYPE":0,"CLASSIFICATION_TYPE":"U","NORAD_CAT_ID":60792,"ELEMENT_SET_NO":999,"REV_AT_EPOCH":8444,"BSTAR":0.00029453778,"MEAN_MOTION_DOT":2.37e-5,"MEAN_MOTION_DDOT":0}]
